BEIDOU-3 M15 (C34)      
1 43648U 18078B   26061.83340197 -.00000052  00000+0  00000+0 0  9995
2 43648  54.1817 303.7166 0005313  37.9111 322.1864  1.86232006 50192
BEIDOU-3 G1 (C59)       
1 43683U 18085A   26062.82815645 -.00000291  00000+0  00000+0 0  9992
2 43683   2.8091 100.4023 0001324  26.5692 112.7898  1.00268737 27005
COSMOS 2529 (757)       
1 43687U 18086A   26058.37448306  .00000008  00000+0  00000+0 0  9993
2 43687  64.2955 196.2992 0007959 253.0448 106.8346  2.13101880 56941
BEIDOU-3 M17 (C36)      
1 43706U 18093A   26061.46828306 -.00000026  00000+0  00000+0 0  9990
2 43706  54.1714 185.9163 0006994 297.4131  70.7484  1.86228347 49556
BEIDOU-3 M18 (C37)      
1 43707U 18093B   26061.31825568 -.00000028  00000+0  00000+0 0  9994
2 43707  54.1724 185.9133 0006020 341.6195  18.3110  1.86226384 49549
GPS BIII-1  (PRN 04)    
1 43873U 18109A   26062.55311155  .00000019  00000+0  00000+0 0  9994
2 43873  55.6145  96.3528 0037895 198.2737 333.9980  2.00556711 52958
BEIDOU-3 IGSO-1 (C38)   
1 44204U 19023A   26062.82416976 -.00000206  00000+0  00000+0 0  9995
2 44204  58.5529  38.7313 0026008 236.5299 302.2113  1.00271041  6157
BEIDOU-2 G8 (C01)       
1 44231U 19027A   26062.40122155 -.00000262  00000+0  00000+0 0  9998
2 44231   1.8655  74.7300 0009271 269.3734 105.9868  1.00268063 25027
COSMOS 2534 (758)       
1 44299U 19030A   26062.65441443 -.00000004  00000+0  00000+0 0  9991
2 44299  64.3688 196.1668 0009568 280.0385 257.7323  2.13102169 52670
BEIDOU-3 IGSO-2 (C39)   
1 44337U 19035A   26057.68879618 -.00000176  00000+0  00000+0 0  9995
2 44337  55.2338 159.8353 0038734 206.4752 153.7223  1.00247364 24561
GPS BIII-2  (PRN 18)    
1 44506U 19056A   26062.19130605 -.00000098  00000+0  00000+0 0  9997
2 44506  55.6853 335.3576 0058023 198.1770 333.1087  2.00568213 47942
BEIDOU-3 M24 (C46)      
1 44542U 19061A   26062.46218233 -.00000017  00000+0  00000+0 0  9998
2 44542  54.3994 186.2929 0008607  21.3432 338.6489  1.86228787 43825
BEIDOU-3 M23 (C45)      
1 44543U 19061B   26062.31966779 -.00000018  00000+0  00000+0 0  9999
2 44543  54.3976 186.2660 0005077  14.2210 162.4807  1.86227170 43823
EUTELSAT 5 WEST B (EGN*)
1 44624U 19067A   26062.79940852 -.00000056  00000+0  00000+0 0  9993
2 44624   0.0961 309.5325 0003204  41.5845  93.1887  1.00272501 23381
BEIDOU-3 IGSO-3 (C40)   
1 44709U 19073A   26062.00508347 -.00000154  00000+0  00000+0 0  9996
2 44709  54.9806 282.0451 0040489 189.0046 170.9845  1.00269768 23393
BEIDOU-3 M22 (C44)      
1 44793U 19078A   26059.07985671 -.00000039  00000+0  00000+0 0  9998
2 44793  54.0347 303.6688 0007221  34.9561 325.1493  1.86231871 42613
BEIDOU-3 M21 (C43)      
1 44794U 19078B   26062.44110506 -.00000055  00000+0  00000+0 0  9999
2 44794  54.0047 303.5128 0005885  39.3589 320.7432  1.86227535 42685
COSMOS 2544 (759)       
1 44850U 19088A   26062.44551424  .00000024  00000+0  00000+0 0  9996
2 44850  65.5052  77.2588 0015744 259.4507 100.4201  2.13101810 48463
BEIDOU-3 M19 (C41)      
1 44864U 19090A   26061.26275238 -.00000008  00000+0  00000+0 0  9992
2 44864  56.4657  66.3234 0020408 291.3317 195.2232  1.86231220 42246
BEIDOU-3 M20 (C42)      
1 44865U 19090B   26062.82614198 -.00000021  00000+0  00000+0 0  9993
2 44865  56.4687  66.3059 0017813 302.9430 241.3938  1.86231297 42257
BEIDOU-3 G2 (C60)       
1 45344U 20017A   26062.81630861 -.00000152  00000+0  00000+0 0  9996
2 45344   2.6532  45.5615 0002743 302.7501 187.1589  1.00271181 22206
COSMOS 2545 (760)       
1 45358U 20018A   26062.17182913 -.00000047  00000+0  00000+0 0  9994
2 45358  64.4184 316.1472 0008275 250.6955 109.2750  2.13102256 46402
BEIDOU-3 G3 (C61)       
1 45807U 20040A   26062.87753244 -.00000366  00000+0  00000+0 0  9990
2 45807   2.1888  67.1175 0004284 315.6999 205.1966  1.00275701 21016
GPS BIII-3  (PRN 23)    
1 45854U 20041A   26062.27516370 -.00000078  00000+0  00000+0 0  9994
2 45854  56.6052  33.0526 0061365 205.2583 328.7601  2.00560606 41914
GALAXY 30 (WAAS/PRN 135)
1 46114U 20056C   26062.70433469  .00000023  00000+0  00000+0 0  9994
2 46114   0.0158 120.6788 0002192 220.8853 308.4406  1.00272514 20230
COSMOS 2547 (705K)      
1 46805U 20075A   26061.42179443 -.00000012  00000+0  00000+0 0  9998
2 46805  64.5998 196.0353 0006707 229.5207 130.3796  2.13100073 41630
GPS BIII-4  (PRN 14)    
1 46826U 20078A   26062.80519441 -.00000007  00000+0  00000+0 0  9997
2 46826  54.0018 215.0499 0068192 204.2889 325.6484  2.00565522 39398
GPS BIII-5  (PRN 11)    
1 48859U 21054A   26062.49128030 -.00000100  00000+0  00000+0 0  9999
2 48859  55.2215 336.7106 0023864 232.0768 255.4185  2.00575580 34631
QZS-1R (QZSS/PRN 196)   
1 49336U 21096A   26060.38447264 -.00000259  00000+0  00000+0 0  9990
2 49336  37.2374  81.1754 0747027 269.6443  80.6815  1.00291836 15925
GSAT0223 (GALILEO 27)   
1 49809U 21116A   26048.03988929 -.00000078  00000+0  00000+0 0  9993
2 49809  57.2005 344.9238 0002865 278.1950 264.6358  1.70475508 26130
GSAT0224 (GALILEO 28)   
1 49810U 21116B   26054.89517960 -.00000088  00000+0  00000+0 0  9990
2 49810  57.1984 344.7369 0002182 291.9502 250.7131  1.70475193 26278
COSMOS 2557 (706K)      
1 52984U 22075A   26062.52543027 -.00000052  00000+0  00000+0 0  9994
2 52984  64.3599 318.2098 0011630 283.5045  76.4245  2.13101658 28460
COSMOS 2559 (707K)      
1 54031U 22130A   26059.99848280 -.00000049  00000+0  00000+0 0  9993
2 54031  64.3338 318.3857 0010601 182.1671 177.8809  2.13101169 26384
COSMOS 2564 (761)       
1 54377U 22161A   26061.71905072 -.00000011  00000+0  00000+0 0  9995
2 54377  64.7417 196.2427 0009386 209.4711 150.4350  2.13101914 25364
GPS BIII-6  (PRN 28)    
1 55268U 23009A   26062.25600392 -.00000002  00000+0  00000+0 0  9994
2 55268  55.1094 152.6829 0004614 335.9551  20.9517  2.00549255 23114
BEIDOU-3 G4 (C62)       
1 56564U 23066A   26062.76084166 -.00000125  00000+0  00000+0 0  9994
2 56564   0.6497 310.8231 0002007 160.3169 124.3164  1.00272201 10330
NVS-01 (IRNSS-1J)       
1 56759U 23076A   26062.75477495 -.00000353  00000+0  00000+0 0  9994
2 56759   2.4202 248.6535 0007447  44.7514 269.3314  1.00274282 10054
COSMOS 2569 (703K)      
1 57517U 23114A   26062.20130409  .00000024  00000+0  00000+0 0  9995
2 57517  65.2411  76.1935 0012888 291.5477  68.3625  2.13103933 20006
BEIDOU-3 M28 (C50)      
1 58654U 23207A   26061.98162292 -.00000017  00000+0  00000+0 0  9993
2 58654  55.6589  65.8845 0004896 302.3246  57.6586  1.86229755 14862
BEIDOU-3 M26 (C48)      
1 58655U 23207B   26062.31605649 -.00000020  00000+0  00000+0 0  9994
2 58655  55.6613  65.8595 0005721 288.0153  71.9513  1.86229607 14852
GSAT0225 (GALILEO 29)   
1 59598U 24079A   26062.23239214  .00000013  00000+0  00000+0 0  9992
2 59598  55.0491 104.0400 0002532 257.0391 101.5580  1.70474849 11501
GSAT0227 (GALILEO 30)   
1 59600U 24079C   26060.07188623  .00000010  00000+0  00000+0 0  9990
2 59600  55.0426 104.0995 0000415  85.7874 274.2997  1.70474778 11525
GSAT0232 (GALILEO 32)   
1 61182U 24167A   26048.66150565  .00000069  00000+0  00000+0 0  9995
2 61182  55.2225 224.5881 0003600 296.6314 116.1306  1.70443939  8265
GSAT0226 (GALILEO 31)   
1 61183U 24167B   26061.41649845  .00000011  00000+0  00000+0 0  9995
2 61183  55.2184 224.2466 0001610 129.2375 282.9718  1.70474130  9035
BEIDOU-3 M25 (C47)      
1 61186U 24168B   26062.40841492 -.00000058  00000+0  00000+0 0  9993
2 61186  54.5666 305.9191 0004276 318.3720 220.5115  1.86230084  9813
BEIDOU-3 M27 (C49)      
1 61187U 24168C   26062.74108155 -.00000060  00000+0  00000+0 0  9996
2 61187  54.5619 305.8909 0002967  19.9056 157.0021  1.86230254  7298
GPS BIII-7  (PRN 01)    
1 62339U 24242A   26059.41642148 -.00000100  00000+0  00000+0 0  9999
2 62339  54.8934 338.5934 0015681 355.9356 192.4850  2.00569355  9070
NVS-02 (IRNSS-1K)       
1 62850U 25020A   26061.02634841  .00000464  00000+0  57814-3 0  9994
2 62850  20.8424 298.6112 7349419  78.1638 348.8744  2.17710344  8647
QZS-6 (QZSS/PRN 200)    
1 62876U 25023A   26062.66262512 -.00000247  00000+0  00000+0 0  9999
2 62876   0.0440 306.2401 0001894  29.5503 154.6750  1.00270273  3903
COSMOS 2584 (704K)      
1 63130U 25042A   26059.74188024  .00000039  00000+0  00000+0 0  9992
2 63130  65.0213  76.4877 0007822 236.2440 123.7373  2.13103267  7739
GPS BIII-8  (PRN 21)    
1 64202U 25116A   26062.39238152 -.00000077  00000+0  00000+0 0  9991
2 64202  55.1633  35.3874 0008474 325.1064  37.8908  2.00553198  5758
COSMOS 2596 (708K)      
1 65590U 25206B   26062.63521083 -.00000053  00000+0  00000+0 0  9991
2 65590  64.6947 318.6620 0012898 315.4778 221.7374  2.13100238  3663
GSAT0233 (GALILEO 33)   
1 67160U 25302A   26044.50000000 -.00000008  00000+0  00000+0 0  9990
2 67160  54.3935 105.2952 0003011 207.0582 359.4109  1.70474578    20
GSAT0234 (GALILEO 34)   
1 67162U 25302C   26044.50000000 -.00000008  00000+0  00000+0 0  9992
2 67162  54.3967 105.2938 0003081 266.8423 119.7309  1.70475065   127
GPS BIII-9  (PRN 20)    
1 67588U 26017A   26062.00114749  .00000017  00000+0  00000+0 0  9998
2 67588  55.0177  93.0152 0001488  18.7586 341.3187  2.00560909429482
